STARLINK-31737          
1 59537U 24074D   26068.09112546  .00001233  00000+0  54299-4 0  9997
2 59537  43.0045 346.8346 0001081 269.7064  90.3664 15.27589441105926
FLOCK 4G-30             
1 62679U 25009BY  26068.70871344  .00013147  00000+0  49475-3 0  9999
2 62679  97.3969 150.6012 0003795 342.4152  17.6955 15.27244548121341
